[{"OBJECT_NAME":"STARLINK-32023","OBJECT_ID":"2024-124Q","EPOCH":"2026-03-09T23:08:43.895616","MEAN_MOTION":15.30183624,"ECCENTRICITY":0.00014184,"INCLINATION":53.1613,"RA_OF_ASC_NODE":321.5139,"ARG_OF_PERICENTER":64.954,"MEAN_ANOMALY":295.1608,"EPHEMERIS_TYPE":0,"CLASSIFICATION_TYPE":"U","NORAD_CAT_ID":60197,"ELEMENT_SET_NO":999,"REV_AT_EPOCH":9433,"BSTAR":8.7317213e-5,"MEAN_MOTION_DOT":2.226e-5,"MEAN_MOTION_DDOT":0},{"OBJECT_NAME":"GB 3","OBJECT_ID":"1983-056G","EPOCH":"2026-03-09T13:52:06.501792","MEAN_MOTION":13.81302374,"ECCENTRICITY":0.0733296,"INCLINATION":63.3073,"RA_OF_ASC_NODE":158.0315,"ARG_OF_PERICENTER":130.105,"MEAN_ANOMALY":236.6668,"EPHEMERIS_TYPE":0,"CLASSIFICATION_TYPE":"U","NORAD_CAT_ID":14180,"ELEMENT_SET_NO":999,"REV_AT_EPOCH":34523,"BSTAR":0.00052827,"MEAN_MOTION_DOT":4.843e-5,"MEAN_MOTION_DDOT":0}]
